[{"OBJECT_NAME":"FENGYUN 1C DEB","OBJECT_ID":"1999-025GV","EPOCH":"2026-04-03T20:13:03.924192","MEAN_MOTION":13.37540161,"ECCENTRICITY":0.03536899,"INCLINATION":98.6781,"RA_OF_ASC_NODE":238.0294,"ARG_OF_PERICENTER":156.944,"MEAN_ANOMALY":204.8013,"EPHEMERIS_TYPE":0,"CLASSIFICATION_TYPE":"U","NORAD_CAT_ID":29899,"ELEMENT_SET_NO":999,"REV_AT_EPOCH":93583,"BSTAR":0.00041078421,"MEAN_MOTION_DOT":2.75e-6,"MEAN_MOTION_DDOT":0},{"OBJECT_NAME":"FENGYUN 1C DEB","OBJECT_ID":"1999-025GX","EPOCH":"2026-04-03T10:00:38.964096","MEAN_MOTION":13.33330982,"ECCENTRICITY":0.03782172,"INCLINATION":98.7597,"RA_OF_ASC_NODE":253.2102,"ARG_OF_PERICENTER":7.2804,"MEAN_ANOMALY":44.4971,"EPHEMERIS_TYPE":0,"CLASSIFICATION_TYPE":"U","NORAD_CAT_ID":29901,"ELEMENT_SET_NO":999,"REV_AT_EPOCH":93407,"BSTAR":0.00039386329,"MEAN_MOTION_DOT":2.54e-6,"MEAN_MOTION_DDOT":0},{"OBJECT_NAME":"FENGYUN 1C DEB","OBJECT_ID":"1999-025HA","EPOCH":"2026-04-04T02:37:46.900704","MEAN_MOTION":14.44923748,"ECCENTRICITY":0.02065568,"INCLINATION":99.0225,"RA_OF_ASC_NODE":144.0976,"ARG_OF_PERICENTER":344.7098,"MEAN_ANOMALY":14.7909,"EPHEMERIS_TYPE":0,"CLASSIFICATION_TYPE":"U","NORAD_CAT_ID":29904,"ELEMENT_SET_NO":999,"REV_AT_EPOCH":680,"BSTAR":0.00064665966,"MEAN_MOTION_DOT":2.868e-5,"MEAN_MOTION_DDOT":0},{"OBJECT_NAME":"FENGYUN 1C DEB","OBJECT_ID":"1999-025HC","EPOCH":"2026-04-04T13:24:04.152960","MEAN_MOTION":14.518242,"ECCENTRICITY":0.003704,"INCLINATION":98.7041,"RA_OF_ASC_NODE":206.7399,"ARG_OF_PERICENTER":166.2984,"MEAN_ANOMALY":193.9224,"EPHEMERIS_TYPE":0,"CLASSIFICATION_TYPE":"U","NORAD_CAT_ID":29906,"ELEMENT_SET_NO":999,"REV_AT_EPOCH":99793,"BSTAR":0.0036664,"MEAN_MOTION_DOT":0.00014869,"MEAN_MOTION_DDOT":0},{"OBJECT_NAME":"FENGYUN 1C DEB","OBJECT_ID":"1999-025HD","EPOCH":"2026-04-04T03:49:20.987616","MEAN_MOTION":14.12276352,"ECCENTRICITY":0.00804878,"INCLINATION":99.0983,"RA_OF_ASC_NODE":167.5596,"ARG_OF_PERICENTER":293.7295,"MEAN_ANOMALY":119.3649,"EPHEMERIS_TYPE":0,"CLASSIFICATION_TYPE":"U","NORAD_CAT_ID":29907,"ELEMENT_SET_NO":999,"REV_AT_EPOCH":98185,"BSTAR":0.0018734036,"MEAN_MOTION_DOT":3.508e-5,"MEAN_MOTION_DDOT":0},{"OBJECT_NAME":"FENGYUN 1C DEB","OBJECT_ID":"1999-025HF","EPOCH":"2026-04-04T05:51:44.452800","MEAN_MOTION":14.57764714,"ECCENTRICITY":0.0036562,"INCLINATION":98.6331,"RA_OF_ASC_NODE":206.9917,"ARG_OF_PERICENTER":33.6967,"MEAN_ANOMALY":356.2779,"EPHEMERIS_TYPE":0,"CLASSIFICATION_TYPE":"U","NORAD_CAT_ID":29909,"ELEMENT_SET_NO":999,"REV_AT_EPOCH":44,"BSTAR":0.0037294401,"MEAN_MOTION_DOT":0.00017193,"MEAN_MOTION_DDOT":0},{"OBJECT_NAME":"FENGYUN 1C DEB","OBJECT_ID":"1999-025HH","EPOCH":"2026-04-04T01:56:50.309376","MEAN_MOTION":14.19220494,"ECCENTRICITY":0.00269863,"INCLINATION":98.6999,"RA_OF_ASC_NODE":140.2415,"ARG_OF_PERICENTER":185.8581,"MEAN_ANOMALY":237.3178,"EPHEMERIS_TYPE":0,"CLASSIFICATION_TYPE":"U","NORAD_CAT_ID":29911,"ELEMENT_SET_NO":999,"REV_AT_EPOCH":99024,"BSTAR":0.00084140603,"MEAN_MOTION_DOT":1.726e-5,"MEAN_MOTION_DDOT":0},{"OBJECT_NAME":"FENGYUN 1C DEB","OBJECT_ID":"1999-025HJ","EPOCH":"2026-04-04T05:39:10.814112","MEAN_MOTION":14.44587308,"ECCENTRICITY":0.00409586,"INCLINATION":98.734,"RA_OF_ASC_NODE":199.6406,"ARG_OF_PERICENTER":241.2535,"MEAN_ANOMALY":148.6218,"EPHEMERIS_TYPE":0,"CLASSIFICATION_TYPE":"U","NORAD_CAT_ID":29912,"ELEMENT_SET_NO":999,"REV_AT_EPOCH":99662,"BSTAR":0.0034857571,"MEAN_MOTION_DOT":0.00012156,"MEAN_MOTION_DDOT":0},{"OBJECT_NAME":"FENGYUN 1C DEB","OBJECT_ID":"1999-025HK","EPOCH":"2026-04-02T10:50:43.720224","MEAN_MOTION":14.07520285,"ECCENTRICITY":0.00620571,"INCLINATION":98.7935,"RA_OF_ASC_NODE":93.3135,"ARG_OF_PERICENTER":320.5664,"MEAN_ANOMALY":195.9487,"EPHEMERIS_TYPE":0,"CLASSIFICATION_TYPE":"U","NORAD_CAT_ID":29913,"ELEMENT_SET_NO":999,"REV_AT_EPOCH":98522,"BSTAR":0.00049139331,"MEAN_MOTION_DOT":7.99e-6,"MEAN_MOTION_DDOT":0},{"OBJECT_NAME":"FENGYUN 1C DEB","OBJECT_ID":"1999-025HL","EPOCH":"2026-04-04T13:07:01.252128","MEAN_MOTION":14.03184537,"ECCENTRICITY":0.00360741,"INCLINATION":98.8297,"RA_OF_ASC_NODE":124.8789,"ARG_OF_PERICENTER":159.6569,"MEAN_ANOMALY":3.6977,"EPHEMERIS_TYPE":0,"CLASSIFICATION_TYPE":"U","NORAD_CAT_ID":29914,"ELEMENT_SET_NO":999,"REV_AT_EPOCH":98368,"BSTAR":0.00038861375,"MEAN_MOTION_DOT":5.66e-6,"MEAN_MOTION_DDOT":0},{"OBJECT_NAME":"FENGYUN 1C DEB","OBJECT_ID":"1999-025HN","EPOCH":"2026-04-03T17:01:51.465216","MEAN_MOTION":13.57138821,"ECCENTRICITY":0.0270219,"INCLINATION":99.1877,"RA_OF_ASC_NODE":110.7296,"ARG_OF_PERICENTER":332.4275,"MEAN_ANOMALY":90.6271,"EPHEMERIS_TYPE":0,"CLASSIFICATION_TYPE":"U","NORAD_CAT_ID":29916,"ELEMENT_SET_NO":999,"REV_AT_EPOCH":94971,"BSTAR":0.00095442,"MEAN_MOTION_DOT":8.2e-6,"MEAN_MOTION_DDOT":0},{"OBJECT_NAME":"FENGYUN 1C DEB","OBJECT_ID":"1999-025HP","EPOCH":"2026-04-04T01:35:06.919584","MEAN_MOTION":13.70746511,"ECCENTRICITY":0.02231615,"INCLINATION":98.8707,"RA_OF_ASC_NODE":312.2081,"ARG_OF_PERICENTER":187.5822,"MEAN_ANOMALY":328.4837,"EPHEMERIS_TYPE":0,"CLASSIFICATION_TYPE":"U","NORAD_CAT_ID":29917,"ELEMENT_SET_NO":999,"REV_AT_EPOCH":95669,"BSTAR":0.0013865822,"MEAN_MOTION_DOT":1.431e-5,"MEAN_MOTION_DDOT":0},{"OBJECT_NAME":"FENGYUN 1C DEB","OBJECT_ID":"1999-025HQ","EPOCH":"2026-04-04T06:32:56.740416","MEAN_MOTION":14.346236,"ECCENTRICITY":0.00116908,"INCLINATION":98.8438,"RA_OF_ASC_NODE":184.329,"ARG_OF_PERICENTER":353.1168,"MEAN_ANOMALY":77.0743,"EPHEMERIS_TYPE":0,"CLASSIFICATION_TYPE":"U","NORAD_CAT_ID":29918,"ELEMENT_SET_NO":999,"REV_AT_EPOCH":99407,"BSTAR":0.0024822217,"MEAN_MOTION_DOT":6.982e-5,"MEAN_MOTION_DDOT":0},{"OBJECT_NAME":"FENGYUN 1C DEB","OBJECT_ID":"1999-025HR","EPOCH":"2026-04-04T00:11:03.613344","MEAN_MOTION":13.85190091,"ECCENTRICITY":0.01381397,"INCLINATION":98.4961,"RA_OF_ASC_NODE":242.8469,"ARG_OF_PERICENTER":36.5694,"MEAN_ANOMALY":85.064,"EPHEMERIS_TYPE":0,"CLASSIFICATION_TYPE":"U","NORAD_CAT_ID":29919,"ELEMENT_SET_NO":999,"REV_AT_EPOCH":97089,"BSTAR":0.00020423166,"MEAN_MOTION_DOT":2.12e-6,"MEAN_MOTION_DDOT":0},{"OBJECT_NAME":"FENGYUN 1C DEB","OBJECT_ID":"1999-025HS","EPOCH":"2026-03-31T12:25:53.936832","MEAN_MOTION":14.0402619,"ECCENTRICITY":0.01253719,"INCLINATION":98.3868,"RA_OF_ASC_NODE":301.7397,"ARG_OF_PERICENTER":332.9004,"MEAN_ANOMALY":26.5656,"EPHEMERIS_TYPE":0,"CLASSIFICATION_TYPE":"U","NORAD_CAT_ID":29920,"ELEMENT_SET_NO":999,"REV_AT_EPOCH":97814,"BSTAR":0.0010648706,"MEAN_MOTION_DOT":1.766e-5,"MEAN_MOTION_DDOT":0},{"OBJECT_NAME":"FENGYUN 1C DEB","OBJECT_ID":"1999-025HT","EPOCH":"2026-04-04T11:39:59.097888","MEAN_MOTION":14.0680132,"ECCENTRICITY":0.00466807,"INCLINATION":98.7878,"RA_OF_ASC_NODE":102.3862,"ARG_OF_PERICENTER":111.7699,"MEAN_ANOMALY":51.369,"EPHEMERIS_TYPE":0,"CLASSIFICATION_TYPE":"U","NORAD_CAT_ID":29921,"ELEMENT_SET_NO":999,"REV_AT_EPOCH":98461,"BSTAR":0.00056326053,"MEAN_MOTION_DOT":9.04e-6,"MEAN_MOTION_DDOT":0},{"OBJECT_NAME":"FENGYUN 1C DEB","OBJECT_ID":"1999-025HU","EPOCH":"2026-04-04T03:32:14.757792","MEAN_MOTION":13.9864688,"ECCENTRICITY":0.00936203,"INCLINATION":99.1134,"RA_OF_ASC_NODE":156.0621,"ARG_OF_PERICENTER":58.5695,"MEAN_ANOMALY":302.4581,"EPHEMERIS_TYPE":0,"CLASSIFICATION_TYPE":"U","NORAD_CAT_ID":29922,"ELEMENT_SET_NO":999,"REV_AT_EPOCH":98012,"BSTAR":0.00014447147,"MEAN_MOTION_DOT":1.71e-6,"MEAN_MOTION_DDOT":0},{"OBJECT_NAME":"FENGYUN 1C DEB","OBJECT_ID":"1999-025HV","EPOCH":"2026-04-04T12:55:07.496544","MEAN_MOTION":14.14135514,"ECCENTRICITY":0.00167248,"INCLINATION":98.6879,"RA_OF_ASC_NODE":104.6922,"ARG_OF_PERICENTER":205.7636,"MEAN_ANOMALY":285.4246,"EPHEMERIS_TYPE":0,"CLASSIFICATION_TYPE":"U","NORAD_CAT_ID":29923,"ELEMENT_SET_NO":999,"REV_AT_EPOCH":98869,"BSTAR":0.00061940475,"MEAN_MOTION_DOT":1.138e-5,"MEAN_MOTION_DDOT":0},{"OBJECT_NAME":"FENGYUN 1C DEB","OBJECT_ID":"1999-025HW","EPOCH":"2026-04-04T12:43:41.063232","MEAN_MOTION":14.08926012,"ECCENTRICITY":0.00258894,"INCLINATION":98.7308,"RA_OF_ASC_NODE":108.9864,"ARG_OF_PERICENTER":300.4798,"MEAN_ANOMALY":213.3905,"EPHEMERIS_TYPE":0,"CLASSIFICATION_TYPE":"U","NORAD_CAT_ID":29924,"ELEMENT_SET_NO":999,"REV_AT_EPOCH":98796,"BSTAR":3.4744627e-5,"MEAN_MOTION_DOT":1.7e-7,"MEAN_MOTION_DDOT":0},{"OBJECT_NAME":"FENGYUN 1C DEB","OBJECT_ID":"1999-025HY","EPOCH":"2026-04-03T22:08:23.803008","MEAN_MOTION":14.3370247,"ECCENTRICITY":0.02475098,"INCLINATION":98.295,"RA_OF_ASC_NODE":83.2327,"ARG_OF_PERICENTER":325.537,"MEAN_ANOMALY":61.9163,"EPHEMERIS_TYPE":0,"CLASSIFICATION_TYPE":"U","NORAD_CAT_ID":29926,"ELEMENT_SET_NO":999,"REV_AT_EPOCH":187,"BSTAR":0.00066999217,"MEAN_MOTION_DOT":2.57e-5,"MEAN_MOTION_DDOT":0},{"OBJECT_NAME":"FENGYUN 1C DEB","OBJECT_ID":"1999-025HZ","EPOCH":"2026-04-04T01:11:48.939072","MEAN_MOTION":14.79349815,"ECCENTRICITY":0.00171975,"INCLINATION":99.0699,"RA_OF_ASC_NODE":136.9438,"ARG_OF_PERICENTER":214.0602,"MEAN_ANOMALY":175.7348,"EPHEMERIS_TYPE":0,"CLASSIFICATION_TYPE":"U","NORAD_CAT_ID":29927,"ELEMENT_SET_NO":999,"REV_AT_EPOCH":304,"BSTAR":0.0047589767,"MEAN_MOTION_DOT":0.00035652,"MEAN_MOTION_DDOT":0},{"OBJECT_NAME":"FENGYUN 1C DEB","OBJECT_ID":"1999-025JA","EPOCH":"2026-04-02T14:02:49.343712","MEAN_MOTION":13.88284842,"ECCENTRICITY":0.01434841,"INCLINATION":99.5715,"RA_OF_ASC_NODE":124.7821,"ARG_OF_PERICENTER":167.5857,"MEAN_ANOMALY":344.2795,"EPHEMERIS_TYPE":0,"CLASSIFICATION_TYPE":"U","NORAD_CAT_ID":29928,"ELEMENT_SET_NO":999,"REV_AT_EPOCH":97029,"BSTAR":0.00065484394,"MEAN_MOTION_DOT":8.04e-6,"MEAN_MOTION_DDOT":0},{"OBJECT_NAME":"FENGYUN 1C DEB","OBJECT_ID":"1999-025JB","EPOCH":"2026-04-04T14:44:37.154688","MEAN_MOTION":14.01936133,"ECCENTRICITY":0.012836,"INCLINATION":98.6285,"RA_OF_ASC_NODE":12.7833,"ARG_OF_PERICENTER":221.005,"MEAN_ANOMALY":260.003,"EPHEMERIS_TYPE":0,"CLASSIFICATION_TYPE":"U","NORAD_CAT_ID":29929,"ELEMENT_SET_NO":999,"REV_AT_EPOCH":97537,"BSTAR":0.0016151,"MEAN_MOTION_DOT":2.603e-5,"MEAN_MOTION_DDOT":0}]
